CCSDS_OMM_VERS = 2.0
CREATION_DATE  = 
ORIGINATOR     = 

OBJECT_NAME    = STARLINK-35343
OBJECT_ID      = 2026-003A
CENTER_NAME    = EARTH
REF_FRAME      = TEME
TIME_SYSTEM    = UTC
MEAN_ELEMENT_THEORY = SGP/SGP4

EPOCH          = 2026-02-06T00:56:44.269728
MEAN_MOTION    = 15.50584338
ECCENTRICITY   = .0001641
INCLINATION    = 43.0000
RA_OF_ASC_NODE = 46.6598
ARG_OF_PERICENTER = 257.2429
MEAN_ANOMALY   = 102.8248

EPHEMERIS_TYPE = 0
CLASSIFICATION_TYPE = U
NORAD_CAT_ID   = 67334
ELEMENT_SET_NO = 999
REV_AT_EPOCH   = 397
BSTAR          = .15958E-2
MEAN_MOTION_DOT = .94432E-3
MEAN_MOTION_DDOT = 0

CCSDS_OMM_VERS = 2.0
CREATION_DATE  = 
ORIGINATOR     = 

OBJECT_NAME    = STARLINK-36486
OBJECT_ID      = 2026-003B
CENTER_NAME    = EARTH
REF_FRAME      = TEME
TIME_SYSTEM    = UTC
MEAN_ELEMENT_THEORY = SGP/SGP4

EPOCH          = 2026-02-06T00:56:14.949024
MEAN_MOTION    = 15.50698479
ECCENTRICITY   = .000139
INCLINATION    = 42.9997
RA_OF_ASC_NODE = 46.6571
ARG_OF_PERICENTER = 243.2953
MEAN_ANOMALY   = 116.7765

EPHEMERIS_TYPE = 0
CLASSIFICATION_TYPE = U
NORAD_CAT_ID   = 67335
ELEMENT_SET_NO = 999
REV_AT_EPOCH   = 397
BSTAR          = .22669E-2
MEAN_MOTION_DOT = .135549E-2
MEAN_MOTION_DDOT = 0

CCSDS_OMM_VERS = 2.0
CREATION_DATE  = 
ORIGINATOR     = 

OBJECT_NAME    = STARLINK-36480
OBJECT_ID      = 2026-003C
CENTER_NAME    = EARTH
REF_FRAME      = TEME
TIME_SYSTEM    = UTC
MEAN_ELEMENT_THEORY = SGP/SGP4

EPOCH          = 2026-02-06T00:55:45.141888
MEAN_MOTION    = 15.50663129
ECCENTRICITY   = .0001046
INCLINATION    = 42.9978
RA_OF_ASC_NODE = 46.6537
ARG_OF_PERICENTER = 232.8550
MEAN_ANOMALY   = 127.2215

EPHEMERIS_TYPE = 0
CLASSIFICATION_TYPE = U
NORAD_CAT_ID   = 67336
ELEMENT_SET_NO = 999
REV_AT_EPOCH   = 397
BSTAR          = .24913E-2
MEAN_MOTION_DOT = .149074E-2
MEAN_MOTION_DDOT = 0

CCSDS_OMM_VERS = 2.0
CREATION_DATE  = 
ORIGINATOR     = 

OBJECT_NAME    = STARLINK-36410
OBJECT_ID      = 2026-003D
CENTER_NAME    = EARTH
REF_FRAME      = TEME
TIME_SYSTEM    = UTC
MEAN_ELEMENT_THEORY = SGP/SGP4

EPOCH          = 2026-02-05T21:49:50.946816
MEAN_MOTION    = 15.50353528
ECCENTRICITY   = .0004801
INCLINATION    = 42.9979
RA_OF_ASC_NODE = 47.4057
ARG_OF_PERICENTER = 228.1668
MEAN_ANOMALY   = 131.8783

EPHEMERIS_TYPE = 0
CLASSIFICATION_TYPE = U
NORAD_CAT_ID   = 67337
ELEMENT_SET_NO = 999
REV_AT_EPOCH   = 395
BSTAR          = .22321E-2
MEAN_MOTION_DOT = .131813E-2
MEAN_MOTION_DDOT = 0

CCSDS_OMM_VERS = 2.0
CREATION_DATE  = 
ORIGINATOR     = 

OBJECT_NAME    = STARLINK-36413
OBJECT_ID      = 2026-003E
CENTER_NAME    = EARTH
REF_FRAME      = TEME
TIME_SYSTEM    = UTC
MEAN_ELEMENT_THEORY = SGP/SGP4

EPOCH          = 2026-02-06T00:54:45.741888
MEAN_MOTION    = 15.50582576
ECCENTRICITY   = .0001919
INCLINATION    = 43.0015
RA_OF_ASC_NODE = 46.6478
ARG_OF_PERICENTER = 260.9336
MEAN_ANOMALY   = 99.1308

EPHEMERIS_TYPE = 0
CLASSIFICATION_TYPE = U
NORAD_CAT_ID   = 67338
ELEMENT_SET_NO = 999
REV_AT_EPOCH   = 397
BSTAR          = .24842E-2
MEAN_MOTION_DOT = .148207E-2
MEAN_MOTION_DDOT = 0

CCSDS_OMM_VERS = 2.0
CREATION_DATE  = 
ORIGINATOR     = 

OBJECT_NAME    = STARLINK-36451
OBJECT_ID      = 2026-003F
CENTER_NAME    = EARTH
REF_FRAME      = TEME
TIME_SYSTEM    = UTC
MEAN_ELEMENT_THEORY = SGP/SGP4

EPOCH          = 2026-02-06T00:53:47.167872
MEAN_MOTION    = 15.52053895
ECCENTRICITY   = .0016135
INCLINATION    = 42.9963
RA_OF_ASC_NODE = 46.6427
ARG_OF_PERICENTER = 278.9687
MEAN_ANOMALY   = 80.9347

EPHEMERIS_TYPE = 0
CLASSIFICATION_TYPE = U
NORAD_CAT_ID   = 67339
ELEMENT_SET_NO = 999
REV_AT_EPOCH   = 397
BSTAR          = .4188E-2
MEAN_MOTION_DOT = .26892E-2
MEAN_MOTION_DDOT = 0

CCSDS_OMM_VERS = 2.0
CREATION_DATE  = 
ORIGINATOR     = 

OBJECT_NAME    = STARLINK-36339
OBJECT_ID      = 2026-003G
CENTER_NAME    = EARTH
REF_FRAME      = TEME
TIME_SYSTEM    = UTC
MEAN_ELEMENT_THEORY = SGP/SGP4

EPOCH          = 2026-02-05T17:09:59.023872
MEAN_MOTION    = 15.50639326
ECCENTRICITY   = .0001264
INCLINATION    = 43.0011
RA_OF_ASC_NODE = 48.5262
ARG_OF_PERICENTER = 274.3272
MEAN_ANOMALY   = 85.7444

EPHEMERIS_TYPE = 0
CLASSIFICATION_TYPE = U
NORAD_CAT_ID   = 67340
ELEMENT_SET_NO = 999
REV_AT_EPOCH   = 392
BSTAR          = .28613E-2
MEAN_MOTION_DOT = .171617E-2
MEAN_MOTION_DDOT = 0

CCSDS_OMM_VERS = 2.0
CREATION_DATE  = 
ORIGINATOR     = 

OBJECT_NAME    = STARLINK-36453
OBJECT_ID      = 2026-003H
CENTER_NAME    = EARTH
REF_FRAME      = TEME
TIME_SYSTEM    = UTC
MEAN_ELEMENT_THEORY = SGP/SGP4

EPOCH          = 2026-02-06T00:53:16.949472
MEAN_MOTION    = 15.50595661
ECCENTRICITY   = .0001314
INCLINATION    = 42.9991
RA_OF_ASC_NODE = 46.6394
ARG_OF_PERICENTER = 262.9616
MEAN_ANOMALY   = 97.1094

EPHEMERIS_TYPE = 0
CLASSIFICATION_TYPE = U
NORAD_CAT_ID   = 67341
ELEMENT_SET_NO = 999
REV_AT_EPOCH   = 397
BSTAR          = .26844E-2
MEAN_MOTION_DOT = .160507E-2
MEAN_MOTION_DDOT = 0

CCSDS_OMM_VERS = 2.0
CREATION_DATE  = 
ORIGINATOR     = 

OBJECT_NAME    = STARLINK-36432
OBJECT_ID      = 2026-003J
CENTER_NAME    = EARTH
REF_FRAME      = TEME
TIME_SYSTEM    = UTC
MEAN_ELEMENT_THEORY = SGP/SGP4

EPOCH          = 2026-02-06T00:52:47.315136
MEAN_MOTION    = 15.50588009
ECCENTRICITY   = .000145
INCLINATION    = 43.0007
RA_OF_ASC_NODE = 46.6378
ARG_OF_PERICENTER = 237.8279
MEAN_ANOMALY   = 122.2441

EPHEMERIS_TYPE = 0
CLASSIFICATION_TYPE = U
NORAD_CAT_ID   = 67342
ELEMENT_SET_NO = 999
REV_AT_EPOCH   = 397
BSTAR          = .20034E-2
MEAN_MOTION_DOT = .119032E-2
MEAN_MOTION_DDOT = 0

CCSDS_OMM_VERS = 2.0
CREATION_DATE  = 
ORIGINATOR     = 

OBJECT_NAME    = STARLINK-36458
OBJECT_ID      = 2026-003K
CENTER_NAME    = EARTH
REF_FRAME      = TEME
TIME_SYSTEM    = UTC
MEAN_ELEMENT_THEORY = SGP/SGP4

EPOCH          = 2026-02-05T10:57:28.486944
MEAN_MOTION    = 15.50629739
ECCENTRICITY   = .00009123
INCLINATION    = 42.9996
RA_OF_ASC_NODE = 50.0243
ARG_OF_PERICENTER = 192.6833
MEAN_ANOMALY   = 167.4004

EPHEMERIS_TYPE = 0
CLASSIFICATION_TYPE = U
NORAD_CAT_ID   = 67343
ELEMENT_SET_NO = 999
REV_AT_EPOCH   = 388
BSTAR          = .2369199E-2
MEAN_MOTION_DOT = .141442E-2
MEAN_MOTION_DDOT = 0

CCSDS_OMM_VERS = 2.0
CREATION_DATE  = 
ORIGINATOR     = 

OBJECT_NAME    = STARLINK-36422
OBJECT_ID      = 2026-003L
CENTER_NAME    = EARTH
REF_FRAME      = TEME
TIME_SYSTEM    = UTC
MEAN_ELEMENT_THEORY = SGP/SGP4

EPOCH          = 2026-02-06T00:51:48.500928
MEAN_MOTION    = 15.50636276
ECCENTRICITY   = .0000913
INCLINATION    = 42.9988
RA_OF_ASC_NODE = 46.6306
ARG_OF_PERICENTER = 260.8418
MEAN_ANOMALY   = 99.2339

EPHEMERIS_TYPE = 0
CLASSIFICATION_TYPE = U
NORAD_CAT_ID   = 67344
ELEMENT_SET_NO = 999
REV_AT_EPOCH   = 397
BSTAR          = .15602E-2
MEAN_MOTION_DOT = .92464E-3
MEAN_MOTION_DDOT = 0

CCSDS_OMM_VERS = 2.0
CREATION_DATE  = 
ORIGINATOR     = 

OBJECT_NAME    = STARLINK-35676
OBJECT_ID      = 2026-003M
CENTER_NAME    = EARTH
REF_FRAME      = TEME
TIME_SYSTEM    = UTC
MEAN_ELEMENT_THEORY = SGP/SGP4

EPOCH          = 2026-02-05T09:23:43.732032
MEAN_MOTION    = 15.50608700
ECCENTRICITY   = .00008018
INCLINATION    = 42.9939
RA_OF_ASC_NODE = 50.3897
ARG_OF_PERICENTER = 266.8164
MEAN_ANOMALY   = 93.2604

EPHEMERIS_TYPE = 0
CLASSIFICATION_TYPE = U
NORAD_CAT_ID   = 67345
ELEMENT_SET_NO = 999
REV_AT_EPOCH   = 387
BSTAR          = .18364108E-2
MEAN_MOTION_DOT = .109019E-2
MEAN_MOTION_DDOT = 0

