STARLINK-35343          
1 67334U 26003A   26037.03940127  .00094432  00000+0  15958-2 0  9999
2 67334  43.0000  46.6598 0001641 257.2429 102.8248 15.50584338  3979
STARLINK-36486          
1 67335U 26003B   26037.03906191  .00135549  00000+0  22669-2 0  9995
2 67335  42.9997  46.6571 0001390 243.2953 116.7765 15.50698479  3972
STARLINK-36480          
1 67336U 26003C   26037.03871692  .00149074  00000+0  24913-2 0  9995
2 67336  42.9978  46.6537 0001046 232.8550 127.2215 15.50663129  3970
STARLINK-36410          
1 67337U 26003D   26036.90961744  .00131813  00000+0  22321-2 0  9992
2 67337  42.9979  47.4057 0004801 228.1668 131.8783 15.50353528  3956
STARLINK-36413          
1 67338U 26003E   26037.03802942  .00148207  00000+0  24842-2 0  9997
2 67338  43.0015  46.6478 0001919 260.9336  99.1308 15.50582576  3979
STARLINK-36451          
1 67339U 26003F   26037.03735148  .00268920  00000+0  41880-2 0  9997
2 67339  42.9963  46.6427 0016135 278.9687  80.9347 15.52053895  3978
STARLINK-36339          
1 67340U 26003G   26036.71526648  .00171617  00000+0  28613-2 0  9991
2 67340  43.0011  48.5262 0001264 274.3272  85.7444 15.50639326  3924
STARLINK-36453          
1 67341U 26003H   26037.03700173  .00160507  00000+0  26844-2 0  9995
2 67341  42.9991  46.6394 0001314 262.9616  97.1094 15.50595661  3972
STARLINK-36432          
1 67342U 26003J   26037.03665874  .00119032  00000+0  20034-2 0  9996
2 67342  43.0007  46.6378 0001450 237.8279 122.2441 15.50588009  3976
STARLINK-36458          
1 67343U 26003K   26036.45657971  .00141442  00000+0  23692-2 0  9994
2 67343  42.9996  50.0243 0000912 192.6833 167.4004 15.50629739  3880
STARLINK-36422          
1 67344U 26003L   26037.03597802  .00092464  00000+0  15602-2 0  9997
2 67344  42.9988  46.6306 0000913 260.8418  99.2339 15.50636276  3978
STARLINK-35676          
1 67345U 26003M   26036.39147838  .00109019  00000+0  18364-2 0  9999
2 67345  42.9939  50.3897 0000801 266.8164  93.2604 15.50608700  3871
